[{"OBJECT_NAME":"TRANSPORTER-15 OBJECT L","OBJECT_ID":"2025-276L","EPOCH":"2026-03-09T15:55:29.246880","MEAN_MOTION":15.17958705,"ECCENTRICITY":0.00058754,"INCLINATION":97.4247,"RA_OF_ASC_NODE":143.7845,"ARG_OF_PERICENTER":7.6723,"MEAN_ANOMALY":352.46,"EPHEMERIS_TYPE":0,"CLASSIFICATION_TYPE":"U","NORAD_CAT_ID":66676,"ELEMENT_SET_NO":999,"REV_AT_EPOCH":1530,"BSTAR":0.00032541658,"MEAN_MOTION_DOT":6.545e-5,"MEAN_MOTION_DDOT":0},{"OBJECT_NAME":"COSMOS 2251 DEB","OBJECT_ID":"1993-036AXM","EPOCH":"2026-03-07T07:05:54.204864","MEAN_MOTION":15.02741186,"ECCENTRICITY":0.0082386,"INCLINATION":74.0334,"RA_OF_ASC_NODE":21.5856,"ARG_OF_PERICENTER":78.8649,"MEAN_ANOMALY":282.1788,"EPHEMERIS_TYPE":0,"CLASSIFICATION_TYPE":"U","NORAD_CAT_ID":36050,"ELEMENT_SET_NO":999,"REV_AT_EPOCH":68304,"BSTAR":0.00097016,"MEAN_MOTION_DOT":0.00013949,"MEAN_MOTION_DDOT":0}]
